SKYKRAFT-1B             
1 55058U 23001BB  24233.73589977  .00028595  00000+0  10290-2 0  9990
2 55058  97.4194 293.5491 0008800 305.4740  54.5678 15.28524286 90514
ION SCV-007             
1 55060U 23001BD  24233.53518065  .00001787  00000+0  26593-3 0  9999
2 55060  97.9937 295.6561 0011831 328.1999  31.8495 14.76134852 87995
SKYKRAFT-1C             
1 55061U 23001BE  24233.71898523  .00007308  00000+0  36426-3 0  9991
2 55061  97.4205 289.8418 0011156 328.1924  31.8635 15.17793118 90265
ICEYE-X27               
1 55062U 23001BF  24233.69388675  .00034975  00000+0  15069-2 0  9990
2 55062  97.4243 292.7632 0004555 359.6955   0.4278 15.22486270 90446
FLOCK 4Y-20             
1 55063U 23001BG  24233.71585637  .00032298  00000+0  10620-2 0  9995
2 55063  97.4232 295.8215 0009767 302.8298  57.2002 15.31425189 90645
NUSAT-32 (ALBANIA-1)    
1 55064U 23001BH  24233.80942955  .00038870  00000+0  10797-2 0  9993
2 55064  97.2798 290.6598 0009194 281.3731  78.6480 15.36737586 90936
FLOCK 4Y-12             
1 55065U 23001BJ  24233.73867609  .00032685  00000+0  10618-2 0  9998
2 55065  97.4229 295.9741 0009620 301.3113  58.7186 15.31814077 90654
FLOCK 4Y-6              
1 55066U 23001BK  24233.74939505  .00029220  00000+0  95452-3 0  9996
2 55066  97.4252 296.0811 0009525 299.8378  60.1916 15.31659626 90665
FLOCK 4Y-15             
1 55068U 23001BM  24233.71327380  .00034343  00000+0  11178-2 0  9991
2 55068  97.4154 295.4765 0010311 295.6342  64.3834 15.31734784 90652
FLOCK 4Y-9              
1 55069U 23001BN  24233.17266808  .00032878  00000+0  10801-2 0  9992
2 55069  97.4222 295.2021 0009922 308.3957  51.6392 15.31449784 90563
FLOCK 4Y-26             
1 55070U 23001BP  24233.61598978  .00032321  00000+0  10492-2 0  9998
2 55070  97.4224 295.6802 0010580 297.3286  62.6878 15.31830352 90647
FLOCK 4Y-8              
1 55071U 23001BQ  24233.16921622  .00042160  00000+0  12919-2 0  9993
2 55071  97.4201 295.6259 0010544 302.2884  57.7336 15.33616359 90600
SPHERE-1 EYE            
1 55072U 23001BR  24233.79878609  .00055062  00000+0  15332-2 0  9996
2 55072  97.4229 296.6713 0008603 294.3956  65.6389 15.36583330 90703
TAUSAT-2                
1 55073U 23001BS  24233.15493632  .00053082  00000+0  14570-2 0  9999
2 55073  97.4191 296.3288 0009743 271.1046  88.9082 15.37029983 90646
FLOCK 4Y-2              
1 55074U 23001BT  24233.73073581  .00033856  00000+0  10963-2 0  9990
2 55074  97.4206 295.8251 0010093 301.9546  58.0714 15.31905647 90650
YAM-5                   
1 55076U 23001BV  24233.12728942  .00011935  00000+0  54267-3 0  9993
2 55076  97.4207 290.4647 0011598 321.3850  38.6555 15.20828500 90251
FLOCK 4Y-21             
1 55077U 23001BW  24233.71666629  .00036617  00000+0  11925-2 0  9999
2 55077  97.4216 295.9001 0010307 301.1447  58.8783 15.31703040 90655
FLOCK 4Y-36             
1 55078U 23001BX  24233.16491220  .00033216  00000+0  10646-2 0  9993
2 55078  97.4204 295.3621 0010347 301.5807  58.4424 15.32236880 90587
FLOCK 4Y-13             
1 55079U 23001BY  24233.14560836  .00032613  00000+0  10633-2 0  9998
2 55079  97.4208 295.1985 0010577 303.8091  56.2142 15.31688712 90563
FLOCK 4Y-23             
1 55080U 23001BZ  24233.15718123  .00033203  00000+0  10778-2 0  9991
2 55080  97.4210 295.3443 0010797 298.7381  61.2775 15.31823709 90584
FLOCK 4Y-34             
1 55082U 23001CB  24233.70902026  .00033262  00000+0  10877-2 0  9996
2 55082  97.4191 295.6864 0010368 296.1896  63.8278 15.31590795 90651
FLOCK 4Y-27             
1 55083U 23001CC  24233.75521924  .00031307  00000+0  98343-3 0  9999
2 55083  97.4219 296.2942 0010699 297.1181  62.8969 15.32889549 90691
GAMA-ALPHA              
1 55084U 23001CD  24233.71955924  .00027518  00000+0  99856-3 0  9996
2 55084  97.4180 293.7597 0010371 296.0489  63.9682 15.28243321 90537
KSF3-D                  
1 55085U 23001CE  24233.83989375  .00020030  00000+0  68567-3 0  9994
2 55085  97.4185 295.2892 0009937 292.0734  67.9451 15.30219215 90641
KSF3-A                  
1 55086U 23001CF  24233.84040477  .00025082  00000+0  85744-3 0  9995
2 55086  97.4227 295.5448 0010454 296.5294  63.4874 15.30213253 90641
SPACEBEE-167            
1 55087U 23001CG  24233.16537599  .00196478  00000+0  24562-2 0  9995
2 55087  97.4095 300.6663 0008190 263.9113  96.1210 15.59129997 90946
SPACEBEE-163            
1 55089U 23001CJ  24233.75418019  .00826939  27737-3  28685-2 0  9999
2 55089  97.3967 304.4052 0011484 255.3692 104.6307 15.89353599 91253
SPACEBEE-164            
1 55091U 23001CL  24233.18360482  .00273356  00000+0  26405-2 0  9996
2 55091  97.4081 301.6738 0008989 255.2559 104.7705 15.65552524 91011
SPACEBEE-166            
1 55092U 23001CM  24233.76009601  .00598999  00000+0  27852-2 0  9994
2 55092  97.4015 304.3237 0010994 252.7364 107.2702 15.81788717 91241
HUYGENS                 
1 55093U 23001CN  24233.78379398  .00015451  00000+0  64449-3 0  9991
2 55093  97.4210 292.6054 0011749 298.8002  61.2054 15.23706220 90450
