OBJECT_NAME,OBJECT_ID,EPOCH,MEAN_MOTION,ECCENTRICITY,INCLINATION,RA_OF_ASC_NODE,ARG_OF_PERICENTER,MEAN_ANOMALY,EPHEMERIS_TYPE,CLASSIFICATION_TYPE,NORAD_CAT_ID,ELEMENT_SET_NO,REV_AT_EPOCH,BSTAR,MEAN_MOTION_DOT,MEAN_MOTION_DDOT
SKYKRAFT-1B,2023-001BB,2024-08-20T17:39:41.740128,15.28524286,.00088,97.4194,293.5491,305.4740,54.5678,0,U,55058,999,9051,.1029E-2,.28595E-3,0
ION SCV-007,2023-001BD,2024-08-20T12:50:39.608160,14.76134852,.0011831,97.9937,295.6561,328.1999,31.8495,0,U,55060,999,8799,.26593E-3,.1787E-4,0
SKYKRAFT-1C,2023-001BE,2024-08-20T17:15:20.323872,15.17793118,.0011156,97.4205,289.8418,328.1924,31.8635,0,U,55061,999,9026,.36426E-3,.7308E-4,0
ICEYE-X27,2023-001BF,2024-08-20T16:39:11.815200,15.22486270,.0004555,97.4243,292.7632,359.6955,0.4278,0,U,55062,999,9044,.15069E-2,.34975E-3,0
FLOCK 4Y-20,2023-001BG,2024-08-20T17:10:49.990368,15.31425189,.0009767,97.4232,295.8215,302.8298,57.2002,0,U,55063,999,9064,.1062E-2,.32298E-3,0
NUSAT-32 (ALBANIA-1),2023-001BH,2024-08-20T19:25:34.713120,15.36737586,.0009194,97.2798,290.6598,281.3731,78.6480,0,U,55064,999,9093,.10797E-2,.3887E-3,0
FLOCK 4Y-12,2023-001BJ,2024-08-20T17:43:41.614176,15.31814077,.000962,97.4229,295.9741,301.3113,58.7186,0,U,55065,999,9065,.10618E-2,.32685E-3,0
FLOCK 4Y-6,2023-001BK,2024-08-20T17:59:07.732320,15.31659626,.0009525,97.4252,296.0811,299.8378,60.1916,0,U,55066,999,9066,.95452E-3,.2922E-3,0
FLOCK 4Y-15,2023-001BM,2024-08-20T17:07:06.856320,15.31734784,.0010311,97.4154,295.4765,295.6342,64.3834,0,U,55068,999,9065,.11178E-2,.34343E-3,0
FLOCK 4Y-9,2023-001BN,2024-08-20T04:08:38.522112,15.31449784,.0009922,97.4222,295.2021,308.3957,51.6392,0,U,55069,999,9056,.10801E-2,.32878E-3,0
FLOCK 4Y-26,2023-001BP,2024-08-20T14:47:01.516992,15.31830352,.001058,97.4224,295.6802,297.3286,62.6878,0,U,55070,999,9064,.10492E-2,.32321E-3,0
FLOCK 4Y-8,2023-001BQ,2024-08-20T04:03:40.281408,15.33616359,.0010544,97.4201,295.6259,302.2884,57.7336,0,U,55071,999,9060,.12919E-2,.4216E-3,0
SPHERE-1 EYE,2023-001BR,2024-08-20T19:10:15.118176,15.36583330,.0008603,97.4229,296.6713,294.3956,65.6389,0,U,55072,999,9070,.15332E-2,.55062E-3,0
TAUSAT-2,2023-001BS,2024-08-20T03:43:06.498048,15.37029983,.0009743,97.4191,296.3288,271.1046,88.9082,0,U,55073,999,9064,.1457E-2,.53082E-3,0
FLOCK 4Y-2,2023-001BT,2024-08-20T17:32:15.573984,15.31905647,.0010093,97.4206,295.8251,301.9546,58.0714,0,U,55074,999,9065,.10963E-2,.33856E-3,0
YAM-5,2023-001BV,2024-08-20T03:03:17.805888,15.20828500,.0011598,97.4207,290.4647,321.3850,38.6555,0,U,55076,999,9025,.54267E-3,.11935E-3,0
FLOCK 4Y-21,2023-001BW,2024-08-20T17:11:59.967456,15.31703040,.0010307,97.4216,295.9001,301.1447,58.8783,0,U,55077,999,9065,.11925E-2,.36617E-3,0
FLOCK 4Y-36,2023-001BX,2024-08-20T03:57:28.414080,15.32236880,.0010347,97.4204,295.3621,301.5807,58.4424,0,U,55078,999,9058,.10646E-2,.33216E-3,0
FLOCK 4Y-13,2023-001BY,2024-08-20T03:29:40.562304,15.31688712,.0010577,97.4208,295.1985,303.8091,56.2142,0,U,55079,999,9056,.10633E-2,.32613E-3,0
FLOCK 4Y-23,2023-001BZ,2024-08-20T03:46:20.458272,15.31823709,.0010797,97.4210,295.3443,298.7381,61.2775,0,U,55080,999,9058,.10778E-2,.33203E-3,0
FLOCK 4Y-34,2023-001CB,2024-08-20T17:00:59.350464,15.31590795,.0010368,97.4191,295.6864,296.1896,63.8278,0,U,55082,999,9065,.10877E-2,.33262E-3,0
FLOCK 4Y-27,2023-001CC,2024-08-20T18:07:30.942336,15.32889549,.0010699,97.4219,296.2942,297.1181,62.8969,0,U,55083,999,9069,.98343E-3,.31307E-3,0
GAMA-ALPHA,2023-001CD,2024-08-20T17:16:09.918336,15.28243321,.0010371,97.4180,293.7597,296.0489,63.9682,0,U,55084,999,9053,.99856E-3,.27518E-3,0
KSF3-D,2023-001CE,2024-08-20T20:09:26.820000,15.30219215,.0009937,97.4185,295.2892,292.0734,67.9451,0,U,55085,999,9064,.68567E-3,.2003E-3,0
KSF3-A,2023-001CF,2024-08-20T20:10:10.972128,15.30213253,.0010454,97.4227,295.5448,296.5294,63.4874,0,U,55086,999,9064,.85744E-3,.25082E-3,0
SPACEBEE-167,2023-001CG,2024-08-20T03:58:08.485536,15.59129997,.000819,97.4095,300.6663,263.9113,96.1210,0,U,55087,999,9094,.24562E-2,.196478E-2,0
SPACEBEE-163,2023-001CJ,2024-08-20T18:06:01.168416,15.89353599,.0011484,97.3967,304.4052,255.3692,104.6307,0,U,55089,999,9125,.28685E-2,.826939E-2,.27737E-3
SPACEBEE-164,2023-001CL,2024-08-20T04:24:23.456448,15.65552524,.0008989,97.4081,301.6738,255.2559,104.7705,0,U,55091,999,9101,.26405E-2,.273356E-2,0
SPACEBEE-166,2023-001CM,2024-08-20T18:14:32.295264,15.81788717,.0010994,97.4015,304.3237,252.7364,107.2702,0,U,55092,999,9124,.27852E-2,.598999E-2,0
HUYGENS,2023-001CN,2024-08-20T18:48:39.799872,15.23706220,.0011749,97.4210,292.6054,298.8002,61.2054,0,U,55093,999,9045,.64449E-3,.15451E-3,0
